NORAD_CAT_ID,OBJECT_NAME,OBJECT_TYPE,EPOCH,MEAN_MOTION,ECCENTRICITY,INCLINATION,RA_OF_ASC_NODE,ARG_OF_PERICENTER,MEAN_ANOMALY,BSTAR,MEAN_MOTION_DOT,MEAN_MOTION_DDOT,TLE_LINE0,TLE_LINE1,TLE_LINE2,SEMIMAJOR_AXIS,PERIOD,APOGEE,PERIGEE,DECAYED
53591.0,STARLINK-4674,PAYLOAD,2023-09-04 03:21:54,15.08838382,0.0001193,53.2182,43.3287,88.8766,271.2362,-3.0757e-07,-2.93e-06,0.0,0 STARLINK-4674,1 53591U 22104D   23247.14021489 -.00000293  00000-0 -30757-6 0  9993,2 53591  53.2182  43.3287 0001193  88.8766 271.2362 15.08838382 57449,6917.885,95.438,540.576,538.925,0.0
53591.0,STARLINK-4674,PAYLOAD,2023-09-04 12:54:14,15.08829602,0.0001442,53.2182,41.5445,99.7305,260.385,-1.7151e-05,-5.61e-06,0.0,0 STARLINK-4674,1 53591U 22104D   23247.53766295 -.00000561  00000-0 -17151-4 0  9996,2 53591  53.2182  41.5445 0001442  99.7305 260.3850 15.08829602 56469,6917.912,95.438,540.775,538.78,0.0
53591.0,STARLINK-4674,PAYLOAD,2023-09-05 03:12:41,15.08840002,0.0001243,53.2184,38.8683,91.8221,268.2914,3.7209e-05,3.04e-06,0.0,0 STARLINK-4674,1 53591U 22104D   23248.13381625  .00000304  00000-0  37209-4 0  9992,2 53591  53.2184  38.8683 0001243  91.8221 268.2914 15.08840002 56558,6917.88,95.438,540.605,538.885,0.0
53591.0,STARLINK-4674,PAYLOAD,2023-09-05 12:45:00,15.08835505,0.0001283,53.2182,37.0844,86.2078,273.9061,4.6837e-05,4.58e-06,0.0,0 STARLINK-4674,1 53591U 22104D   23248.53125992  .00000458  00000-0  46837-4 0  9996,2 53591  53.2182  37.0844 0001283  86.2078 273.9061 15.08835505 57658,6917.894,95.438,540.647,538.872,0.0
53591.0,STARLINK-4674,PAYLOAD,2023-09-06 12:35:47,15.08836775,0.0001287,53.2182,32.624,88.8394,271.2745,0.00011322,1.514e-05,0.0,0 STARLINK-4674,1 53591U 22104D   23249.52485872  .00001514  00000-0  11322-3 0  9996,2 53591  53.2182  32.6240 0001287  88.8394 271.2745 15.08836775 57809,6917.89,95.438,540.646,538.865,0.0
53591.0,STARLINK-4674,PAYLOAD,2023-09-07 10:51:11,15.08836747,0.0001188,53.2188,28.4598,89.3902,270.7226,6.0993e-05,6.83e-06,0.0,0 STARLINK-4674,1 53591U 22104D   23250.45221975  .00000683  00000-0  60993-4 0  9997,2 53591  53.2188  28.4598 0001188  89.3902 270.7226 15.08836747 57947,6917.89,95.438,540.577,538.933,0.0
53591.0,STARLINK-4674,PAYLOAD,2023-09-08 04:20:26,15.08839765,0.0001495,53.2183,25.1894,78.6535,281.4625,0.00010376,1.364e-05,0.0,0 STARLINK-4674,1 53591U 22104D   23251.18085765  .00001364  00000-0  10376-3 0  9999,2 53591  53.2183  25.1894 0001495  78.6535 281.4625 15.08839765 57012,6917.881,95.438,540.78,538.712,0.0
53591.0,STARLINK-4674,PAYLOAD,2023-09-08 13:52:44,15.08842681,0.0001368,53.2187,23.4045,92.739,267.3759,4.2873e-05,3.95e-06,0.0,0 STARLINK-4674,1 53591U 22104D   23251.57829593  .00000395  00000-0  42873-4 0  9998,2 53591  53.2187  23.4045 0001368  92.7390 267.3759 15.08842681 58114,6917.872,95.437,540.684,538.791,0.0
53591.0,STARLINK-4674,PAYLOAD,2023-09-08 15:28:07,15.08841924,0.0001298,53.2189,23.1078,88.8167,271.2974,6.0216e-05,6.71e-06,0.0,0 STARLINK-4674,1 53591U 22104D   23251.64453559  .00000671  00000-0  60216-4 0  9999,2 53591  53.2189  23.1078 0001298  88.8167 271.2974 15.08841924 58122,6917.875,95.437,540.637,538.842,0.0
53591.0,STARLINK-4674,PAYLOAD,2023-09-09 04:11:13,15.08835758,0.0001337,53.2187,20.7294,82.1123,278.0021,4.4019e-05,4.13e-06,0.0,0 STARLINK-4674,1 53591U 22104D   23252.17445958  .00000413  00000-0  44019-4 0  9999,2 53591  53.2187  20.7294 0001337  82.1123 278.0021 15.08835758 57165,6917.893,95.438,540.683,538.833,0.0
53591.0,STARLINK-4674,PAYLOAD,2023-09-09 13:43:32,15.08834023,0.0001327,53.2188,18.9452,81.3994,278.7148,2.5456e-05,1.17e-06,0.0,0 STARLINK-4674,1 53591U 22104D   23252.57190280  .00000117  00000-0  25456-4 0  9993,2 53591  53.2188  18.9452 0001327  81.3994 278.7148 15.08834023 58260,6917.899,95.438,540.682,538.846,0.0
53591.0,STARLINK-4674,PAYLOAD,2023-09-10 13:34:19,15.08840411,0.0001322,53.2186,14.4843,86.4647,273.6497,6.8929e-05,8.09e-06,0.0,0 STARLINK-4674,1 53591U 22104D   23253.56549829  .00000809  00000-0  68929-4 0  9990,2 53591  53.2186  14.4843 0001322  86.4647 273.6497 15.08840411 58415,6917.879,95.438,540.659,538.83,0.0
53591.0,STARLINK-4674,PAYLOAD,2023-09-10 15:09:41,15.08844013,0.0001284,53.2189,14.1867,85.2796,274.8343,9.4993e-05,1.224e-05,0.0,0 STARLINK-4674,1 53591U 22104D   23253.63173521  .00001224  00000-0  94993-4 0  9992,2 53591  53.2189  14.1867 0001284  85.2796 274.8343 15.08844013 57380,6917.868,95.437,540.621,538.845,0.0
53591.0,STARLINK-4674,PAYLOAD,2023-09-11 13:25:06,15.08834406,0.0001267,53.2189,10.0238,102.14,257.9734,7.3667e-05,8.85e-06,0.0,0 STARLINK-4674,1 53591U 22104D   23254.55910333  .00000885  00000-0  73667-4 0  9991,2 53591  53.2189  10.0238 0001267 102.1400 257.9734 15.08834406 58561,6917.897,95.438,540.639,538.886,0.0
53591.0,STARLINK-4674,PAYLOAD,2023-09-11 16:35:52,15.08843609,0.0001188,53.2191,9.4292,90.3424,269.7704,8.0483e-05,9.93e-06,0.0,0 STARLINK-4674,1 53591U 22104D   23254.69157830  .00000993  00000-0  80483-4 0  9995,2 53591  53.2191   9.4292 0001188  90.3424 269.7704 15.08843609 57542,6917.869,95.437,540.556,538.913,0.0
53591.0,STARLINK-4674,PAYLOAD,2023-09-12 13:15:53,15.08843703,0.0001171,53.2196,5.5642,86.8135,273.2991,-2.1864e-05,-6.36e-06,0.0,0 STARLINK-4674,1 53591U 22104D   23255.55270111 -.00000636  00000-0 -21864-4 0  9993,2 53591  53.2196   5.5642 0001171  86.8135 273.2991 15.08843703 58717,6917.869,95.437,540.544,538.924,0.0
53591.0,STARLINK-4674,PAYLOAD,2023-09-12 14:51:16,15.08849808,0.0001275,53.2193,5.267,85.1294,274.9844,3.4356e-05,2.59e-06,0.0,0 STARLINK-4674,1 53591U 22104D   23255.61893583  .00000259  00000-0  34356-4 0  9993,2 53591  53.2193   5.2670 0001275  85.1294 274.9844 15.08849808 58723,6917.85,95.437,540.597,538.833,0.0
53591.0,STARLINK-4674,PAYLOAD,2023-09-13 06:45:07,15.08845322,0.0001314,53.2196,2.2941,83.4504,276.6638,5.2024e-05,5.4e-06,0.0,0 STARLINK-4674,1 53591U 22104D   23256.28133971  .00000540  00000-0  52024-4 0  9990,2 53591  53.2196   2.2941 0001314  83.4504 276.6638 15.08845322 57785,6917.864,95.437,540.638,538.82,0.0
53591.0,STARLINK-4674,PAYLOAD,2023-09-13 13:06:39,15.08850433,0.0001387,53.2193,1.105,79.0459,281.0689,0.0001003,1.309e-05,0.0,0 STARLINK-4674,1 53591U 22104D   23256.54629367  .00001309  00000-0  10030-3 0  9992,2 53591  53.2193   1.1050 0001387  79.0459 281.0689 15.08850433 58866,6917.848,95.437,540.673,538.754,0.0
53591.0,STARLINK-4674,PAYLOAD,2023-09-13 14:42:02,15.08854861,0.0001397,53.2199,0.8076,80.1809,279.9341,0.00013671,1.889e-05,0.0,0 STARLINK-4674,1 53591U 22104D   23256.61252957  .00001889  00000-0  13671-3 0  9994,2 53591  53.2199   0.8076 0001397  80.1809 279.9341 15.08854861 57835,6917.835,95.437,540.666,538.734,0.0
53591.0,STARLINK-4674,PAYLOAD,2023-09-14 00:14:22,15.08834799,0.0001497,53.2197,359.023,77.7572,282.3588,-4.6768e-05,-1.032e-05,0.0,0 STARLINK-4674,1 53591U 22104D   23257.00998685 -.00001032  00000-0 -46768-4 0  9999,2 53591  53.2197 359.0230 0001497  77.7572 282.3588 15.08834799 57899,6917.896,95.438,540.797,538.726,0.0
53591.0,STARLINK-4674,PAYLOAD,2023-09-14 12:57:29,15.08820205,0.0001596,53.2188,356.6473,68.2344,291.8818,-0.00016847,-2.967e-05,0.0,0 STARLINK-4674,1 53591U 22104D   23257.53992650 -.00002967  00000-0 -16847-3 0  9995,2 53591  53.2188 356.6473 0001596  68.2344 291.8818 15.08820205 59017,6917.941,95.439,540.91,538.702,0.0
53591.0,STARLINK-4674,PAYLOAD,2023-09-15 00:05:10,15.08829344,0.0001279,53.218,354.5623,72.1324,287.9808,-5.5619e-05,-1.173e-05,0.0,0 STARLINK-4674,1 53591U 22104D   23258.00359950 -.00001173  00000-0 -55619-4 0  9997,2 53591  53.2180 354.5623 0001279  72.1324 287.9808 15.08829344 58043,6917.913,95.438,540.663,538.893,0.0
53591.0,STARLINK-4674,PAYLOAD,2023-09-15 12:48:15,15.08849185,0.0001418,53.2196,352.1825,78.4463,281.6688,-1.0747e-06,-3.05e-06,0.0,0 STARLINK-4674,1 53591U 22104D   23258.53350798 -.00000305  00000-0 -10747-5 0  9996,2 53591  53.2196 352.1825 0001418  78.4463 281.6688 15.08849185 59162,6917.852,95.437,540.698,538.736,0.0
53591.0,STARLINK-4674,PAYLOAD,2023-09-16 09:28:16,15.08832616,0.0001412,53.2192,348.3166,76.9385,283.1764,0.00029748,4.449e-05,0.0,0 STARLINK-4674,1 53591U 22104D   23259.39463180  .00004449  00000-0  29748-3 0  9991,2 53591  53.2192 348.3166 0001412  76.9385 283.1764 15.08832616 58255,6917.903,95.438,540.745,538.791,0.0
53591.0,STARLINK-4674,PAYLOAD,2023-09-16 12:39:02,15.08837504,0.0001903,53.2186,347.723,48.2203,311.8952,0.00028488,4.248e-05,0.0,0 STARLINK-4674,1 53591U 22104D   23259.52711157  .00004248  00000-0  28488-3 0  9993,2 53591  53.2186 347.7230 0001903  48.2203 311.8952 15.08837504 59316,6917.888,95.438,541.069,538.437,0.0
53591.0,STARLINK-4674,PAYLOAD,2023-09-17 12:29:49,15.08850941,0.000127,53.2181,343.2638,76.9657,283.1477,7.5635e-05,9.16e-06,0.0,0 STARLINK-4674,1 53591U 22104D   23260.52070745  .00000916  00000-0  75635-4 0  9991,2 53591  53.2181 343.2638 0001270  76.9657 283.1477 15.08850941 59461,6917.847,95.437,540.591,538.833,0.0
53591.0,STARLINK-4674,PAYLOAD,2023-09-18 10:45:12,15.08852768,0.0001302,53.2177,339.101,76.7062,283.4075,-7.0275e-05,-1.407e-05,0.0,0 STARLINK-4674,1 53591U 22104D   23261.44806708 -.00001407  00000-0 -70275-4 0  9992,2 53591  53.2177 339.1010 0001302  76.7062 283.4075 15.08852768 58564,6917.841,95.437,540.607,538.806,0.0
53591.0,STARLINK-4674,PAYLOAD,2023-09-19 12:11:22,15.08851164,0.0001204,53.2192,334.3439,86.1345,273.9785,0.00016332,2.313e-05,0.0,0 STARLINK-4674,1 53591U 22104D   23262.50789698  .00002313  00000-0  16332-3 0  9996,2 53591  53.2192 334.3439 0001204  86.1345 273.9785 15.08851164 58722,6917.846,95.437,540.544,538.878,0.0
53591.0,STARLINK-4674,PAYLOAD,2023-09-20 08:51:24,15.08830666,0.0001552,53.2191,330.4782,113.0028,247.1128,-4.6102e-05,-1.021e-05,0.0,0 STARLINK-4674,1 53591U 22104D   23263.36903801 -.00001021  00000-0 -46102-4 0  9991,2 53591  53.2191 330.4782 0001552 113.0028 247.1128 15.08830666 58855,6917.909,95.438,540.848,538.7,0.0
